*******************************************************************************
JPL/HORIZONS                1221 Amor (1932 EA1)           2023-Sep-04 11:10:54
Rec #:    1221 (+COV) Soln.date: 2023-Aug-25_04:49:45    # obs: 600 (1932-2023)
 
IAU76/J2000 helio. ecliptic osc. elements (au, days, deg., period=Julian yrs):
 
  EPOCH=  2458098.5 ! 2017-Dec-11.00 (TDB)         Residual RMS= .18862
   EC= .4355783141174601   QR= 1.083153156563578   TP= 2457925.2800612841
   OM= 171.3436426151243   W=  26.65226215217895   IN= 11.8794082384187
   A= 1.919049504396593    MA= 64.22035284842838   ADIST= 2.754945852229609
   PER= 2.6585             N= .370744577           ANGMOM= .021450619
   DAN= 1.11924            DDN= 2.54616            L= 197.5018286
   B= 5.2982505            MOID= .106436           TP= 2017-Jun-20.7800612841
 
Asteroid physical parameters (km, seconds, rotational period in hours):
   GM= n.a.                RAD= .500               ROTPER= n.a.
   H= 17.37                G= .150                 B-V= n.a.
                           ALBEDO= n.a.            STYP= n.a.

ASTEROID comments: 
1: soln ref.= JPL#115, OCC=0
2: source=ORB
*******************************************************************************


*******************************************************************************
Ephemeris / API_USER Mon Sep  4 11:10:54 2023 Pasadena, USA      / Horizons
*******************************************************************************
Target body name: 1221 Amor (1932 EA1)            {source: JPL#115}
Center body name: Solar System Barycenter (0)     {source: DE441}
Center-site name: BODY CENTER
*******************************************************************************
Start time      : A.D. 2023-Aug-12 00:00:00.0000 TDB
Stop  time      : A.D. 2023-Aug-13 00:00:00.0000 TDB
Step-size       : 2880 minutes
*******************************************************************************
Center geodetic : 0.0, 0.0, 0.0                   {E-lon(deg),Lat(deg),Alt(km)}
Center cylindric: 0.0, 0.0, 0.0                   {E-lon(deg),Dxy(km),Dz(km)}
Center radii    : (undefined)
Small perturbers: Yes                             {source: SB441-N16}
Output units    : KM-S
Calendar mode   : Mixed Julian/Gregorian
Output type     : GEOMETRIC cartesian states
Output format   : 2 (position and velocity)
Reference frame : Ecliptic of J2000.0
*******************************************************************************
Initial IAU76/J2000 heliocentric ecliptic osculating elements (au, days, deg.):
  EPOCH=  2458098.5 ! 2017-Dec-11.00 (TDB)         Residual RMS= .18862        
   EC= .4355783141174601   QR= 1.083153156563578   TP= 2457925.2800612841      
   OM= 171.3436426151243   W=  26.65226215217895   IN= 11.8794082384187        
  Equivalent ICRF heliocentric cartesian coordinates (au, au/d):
   X= 1.306150624281845E+00  Y=-1.351868277864624E+00  Z=-3.210923012492704E-01
  VX= 1.191593902795492E-02 VY= 3.741315769384529E-03 VZ= 3.970177805083537E-04
Asteroid physical parameters (km, seconds, rotational period in hours):        
   GM= n.a.                RAD= .500               ROTPER= n.a.                
   H= 17.37                G= .150                 B-V= n.a.                   
                           ALBEDO= n.a.            STYP= n.a.                  
*******************************************************************************
JDTDB
   X     Y     Z
   VX    VY    VZ
*******************************************************************************
$$SOE
2460168.500000000 = A.D. 2023-Aug-12 00:00:00.0000 TDB 
 X = 3.561032949236916E+08 Y =-8.986830899041155E+07 Z = 7.318984738937140E+06
 VX= 9.025544833384622E+00 VY= 1.293696627018604E+01 VZ=-2.980334279688890E+00
$$EOE
*******************************************************************************
 
TIME

  Barycentric Dynamical Time ("TDB" or T_eph) output was requested. This
continuous coordinate time is equivalent to the relativistic proper time
of a clock at rest in a reference frame co-moving with the solar system
barycenter but outside the system's gravity well. It is the independent
variable in the solar system relativistic equations of motion.

  TDB runs at a uniform rate of one SI second per second and is independent
of irregularities in Earth's rotation.
 
CALENDAR SYSTEM

  Mixed calendar mode was active such that calendar dates after AD 1582-Oct-15
(if any) are in the modern Gregorian system. Dates prior to 1582-Oct-5 (if any)
are in the Julian calendar system, which is automatically extended for dates
prior to its adoption on 45-Jan-1 BC.  The Julian calendar is useful for
matching historical dates. The Gregorian calendar more accurately corresponds
to the Earth's orbital motion and seasons. A "Gregorian-only" calendar mode is
available if such physical events are the primary interest.

REFERENCE FRAME AND COORDINATES

  Ecliptic at the standard reference epoch

    Reference epoch: J2000.0
    X-Y plane: adopted Earth orbital plane at the reference epoch
               Note: IAU76 obliquity of 84381.448 arcseconds wrt ICRF X-Y plane
    X-axis   : ICRF
    Z-axis   : perpendicular to the X-Y plane in the directional (+ or -) sense
               of Earth's north pole at the reference epoch.

  Symbol meaning:

    JDTDB    Julian Day Number, Barycentric Dynamical Time
      X      X-component of position vector (km)
      Y      Y-component of position vector (km)
      Z      Z-component of position vector (km)
      VX     X-component of velocity vector (km/sec)                           
      VY     Y-component of velocity vector (km/sec)                           
      VZ     Z-component of velocity vector (km/sec)                           

ABERRATIONS AND CORRECTIONS

 Geometric state vectors have NO corrections or aberrations applied.

Computations by ...

    Solar System Dynamics Group, Horizons On-Line Ephemeris System
    4800 Oak Grove Drive, Jet Propulsion Laboratory
    Pasadena, CA  91109   USA

    General site: https://ssd.jpl.nasa.gov/
    Mailing list: https://ssd.jpl.nasa.gov/email_list.html
    System news : https://ssd.jpl.nasa.gov/horizons/news.html
    User Guide  : https://ssd.jpl.nasa.gov/horizons/manual.html
    Connect     : browser        https://ssd.jpl.nasa.gov/horizons/app.html#/x
                  API            https://ssd-api.jpl.nasa.gov/doc/horizons.html
                  command-line   telnet ssd.jpl.nasa.gov 6775
                  e-mail/batch   https://ssd.jpl.nasa.gov/ftp/ssd/hrzn_batch.txt
                  scripts        https://ssd.jpl.nasa.gov/ftp/ssd/SCRIPTS
    Author      : Jon.D.Giorgini@jpl.nasa.gov
*******************************************************************************
